$$SOE
2460728.500000000, A.D. 2025-Feb-22 00:00:00.0000, -2.576384114938976E+08, -2.563696355268248E+08, -4.451551087259653E+07,
2460735.500000000, A.D. 2025-Mar-01 00:00:00.0000, -2.481153394183038E+08, -2.636934602630234E+08, -4.402685871940191E+07,
2460742.500000000, A.D. 2025-Mar-08 00:00:00.0000, -2.383440673506517E+08, -2.707535325804781E+08, -4.349416317385770E+07,
2460749.500000000, A.D. 2025-Mar-15 00:00:00.0000, -2.283315803015135E+08, -2.775396228785144E+08, -4.291744902555946E+07,
2460756.500000000, A.D. 2025-Mar-22 00:00:00.0000, -2.180853544761309E+08, -2.840416326987249E+08, -4.229680108557703E+07,
2460763.500000000, A.D. 2025-Mar-29 00:00:00.0000, -2.076133618570590E+08, -2.902496243739700E+08, -4.163236655453771E+07,
2460770.500000000, A.D. 2025-Apr-05 00:00:00.0000, -1.969240713812592E+08, -2.961538508404954E+08, -4.092435736804947E+07,
2460777.500000000, A.D. 2025-Apr-12 00:00:00.0000, -1.860264485006048E+08, -3.017447854052919E+08, -4.017305231327163E+07,
2460784.500000000, A.D. 2025-Apr-19 00:00:00.0000, -1.749299531805729E+08, -3.070131522267877E+08, -3.937879894924089E+07,
2460791.500000000, A.D. 2025-Apr-26 00:00:00.0000, -1.636445359395991E+08, -3.119499575692045E+08, -3.854201534922971E+07,
2460798.500000000, A.D. 2025-May-03 00:00:00.0000, -1.521806316979349E+08, -3.165465216497340E+08, -3.766319165004103E+07,
2460805.500000000, A.D. 2025-May-10 00:00:00.0000, -1.405491513001832E+08, -3.207945108902475E+08, -3.674289138584164E+07,
2460812.500000000, A.D. 2025-May-17 00:00:00.0000, -1.287614705796485E+08, -3.246859704193909E+08, -3.578175258948420E+07,
2460819.500000000, A.D. 2025-May-24 00:00:00.0000, -1.168294167115808E+08, -3.282133566726444E+08, -3.478048865984122E+07,
2460826.500000000, A.D. 2025-May-31 00:00:00.0000, -1.047652513806776E+08, -3.313695695621745E+08, -3.373988898839763E+07,
2460833.500000000, A.D. 2025-Jun-07 00:00:00.0000, -9.258165113223259E+07, -3.341479827815762E+08, -3.266081919134489E+07,
2460840.500000000, A.D. 2025-Jun-14 00:00:00.0000, -8.029168726347913E+07, -3.365424726674337E+08, -3.154422076667894E+07,
2460847.500000000, A.D. 2025-Jun-21 00:00:00.0000, -6.790880405209748E+07, -3.385474486347849E+08, -3.039111053866675E+07,
2460854.500000000, A.D. 2025-Jun-28 00:00:00.0000, -5.544679223257494E+07, -3.401578831665262E+08, -2.920258001883665E+07,
2460861.500000000, A.D. 2025-Jul-05 00:00:00.0000, -4.291975930476241E+07, -3.413693389458019E+08, -2.797979435787727E+07,
2460868.500000000, A.D. 2025-Jul-12 00:00:00.0000, -3.034209796290863E+07, -3.421779936843913E+08, -2.672399083814713E+07,
2460875.500000000, A.D. 2025-Jul-19 00:00:00.0000, -1.772845258336392E+07, -3.425806629753708E+08, -2.543647696776895E+07,
2460882.500000000, A.D. 2025-Jul-26 00:00:00.0000, -5.093683718740246E+06, -3.425748209878983E+08, -2.411862820015477E+07,
2460889.500000000, A.D. 2025-Aug-02 00:00:00.0000, 7.547169281685490E+06, -3.421586187553650E+08, -2.277188528679650E+07,
2460896.500000000, A.D. 2025-Aug-09 00:00:00.0000, 2.017892733832998E+07, -3.413308998620389E+08, -2.139775127431077E+07,
2460903.500000000, A.D. 2025-Aug-16 00:00:00.0000, 3.278631223615077E+07, -3.400912134048870E+08, -1.999778816961500E+07,
2460910.500000000, A.D. 2025-Aug-23 00:00:00.0000, 4.535398878171773E+07, -3.384398240526711E+08, -1.857361331408358E+07,
2460917.500000000, A.D. 2025-Aug-30 00:00:00.0000, 5.786660857234654E+07, -3.363777183535271E+08, -1.712689545754138E+07,
2460924.500000000, A.D. 2025-Sep-06 00:00:00.0000, 7.030885366376121E+07, -3.339066061846383E+08, -1.565935034303690E+07,
2460931.500000000, A.D. 2025-Sep-13 00:00:00.0000, 8.266547815831429E+07, -3.310289197507479E+08, -1.417273587852585E+07,
2460938.500000000, A.D. 2025-Sep-20 00:00:00.0000, 9.492135067344598E+07, -3.277478117345579E+08, -1.266884736015633E+07,
2460945.500000000, A.D. 2025-Sep-27 00:00:00.0000, 1.070614984318786E+08, -3.240671494853171E+08, -1.114951262300634E+07,
2460952.500000000, A.D. 2025-Oct-04 00:00:00.0000, 1.190711506390619E+08, -3.199915047406179E+08, -9.616586925498828E+06,
2460959.500000000, A.D. 2025-Oct-11 00:00:00.0000, 1.309357804611510E+08, -3.155261398927847E+08, -8.071947647413880E+06,
2460966.500000000, A.D. 2025-Oct-18 00:00:00.0000, 1.426411455838706E+08, -3.106769911768605E+08, -6.517488888495311E+06,
2460973.500000000, A.D. 2025-Oct-25 00:00:00.0000, 1.541733272020400E+08, -3.054506489048166E+08, -4.955116018987298E+06,
2460980.500000000, A.D. 2025-Nov-01 00:00:00.0000, 1.655187672066270E+08, -2.998543348961235E+08, -3.386740224315464E+06,
2460987.500000000, A.D. 2025-Nov-08 00:00:00.0000, 1.766643033532577E+08, -2.938958773283035E+08, -1.814273089536697E+06,
2460994.500000000, A.D. 2025-Nov-15 00:00:00.0000, 1.875972023365435E+08, -2.875836832835692E+08, -2.396212810539901E+05,
2461001.500000000, A.D. 2025-Nov-22 00:00:00.0000, 1.983051909785008E+08, -2.809267090138454E+08, 1.335318618094742E+06,
2461008.500000000, A.D. 2025-Nov-29 00:00:00.0000, 2.087764852116496E+08, -2.739344270517169E+08, 2.908665191097975E+06,
2461015.500000000, A.D. 2025-Dec-06 00:00:00.0000, 2.189998144415000E+08, -2.666167905776717E+08, 4.478557353226840E+06,
2461022.500000000, A.D. 2025-Dec-13 00:00:00.0000, 2.289644416153125E+08, -2.589841986931672E+08, 6.043159254728183E+06,
2461029.500000000, A.D. 2025-Dec-20 00:00:00.0000, 2.386601824188573E+08, -2.510474618601329E+08, 7.600664656211153E+06,
2461036.500000000, A.D. 2025-Dec-27 00:00:00.0000, 2.480774224904011E+08, -2.428177652040186E+08, 9.149301062822327E+06,
2461043.500000000, A.D. 2026-Jan-03 00:00:00.0000, 2.572071311864572E+08, -2.343066305827273E+08, 1.068733368056722E+07,
2461050.500000000, A.D. 2026-Jan-10 00:00:00.0000, 2.660408720320776E+08, -2.255258783802072E+08, 1.221306911279292E+07,
2461057.500000000, A.D. 2026-Jan-17 00:00:00.0000, 2.745708101388446E+08, -2.164875893864994E+08, 1.372485875538787E+07,
2461064.500000000, A.D. 2026-Jan-24 00:00:00.0000, 2.827897167433092E+08, -2.072040669994050E+08, 1.522110187639267E+07,
2461071.500000000, A.D. 2026-Jan-31 00:00:00.0000, 2.906909709841358E+08, -1.976877999967264E+08, 1.670024837121468E+07,
2461078.500000000, A.D. 2026-Feb-07 00:00:00.0000, 2.982685590913873E+08, -1.879514261565553E+08, 1.816080117913263E+07,
2461085.500000000, A.D. 2026-Feb-14 00:00:00.0000, 3.055170713718008E+08, -1.780076969356706E+08, 1.960131833469477E+07,
2461092.500000000, A.D. 2026-Feb-21 00:00:00.0000, 3.124316975323663E+08, -1.678694428017657E+08, 2.102041466759720E+07,
2461099.500000000, A.D. 2026-Feb-28 00:00:00.0000, 3.190082194330565E+08, -1.575495382255523E+08, 2.241676335205062E+07,
2461106.500000000, A.D. 2026-Mar-07 00:00:00.0000, 3.252429993922594E+08, -1.470608684284804E+08, 2.378909734560376E+07,
2461113.500000000, A.D. 2026-Mar-14 00:00:00.0000, 3.311329670005610E+08, -1.364163003409348E+08, 2.513621028372717E+07,
2461120.500000000, A.D. 2026-Mar-21 00:00:00.0000, 3.366756064074187E+08, -1.256286549697641E+08, 2.645695691638039E+07,
2461127.500000000, A.D. 2026-Mar-28 00:00:00.0000, 3.418689422552407E+08, -1.147106802220167E+08, 2.775025336943380E+07,
2461134.500000000, A.D. 2026-Apr-04 00:00:00.0000, 3.467115238394846E+08, -1.036750252053239E+08, 2.901507722286057E+07,
2461141.500000000, A.D. 2026-Apr-11 00:00:00.0000, 3.512024079477192E+08, -9.253421639963220E+07, 3.025046736739114E+07,
2461148.500000000, A.D. 2026-Apr-18 00:00:00.0000, 3.553411407116347E+08, -8.130063572361089E+07, 3.145552364146195E+07,
2461155.500000000, A.D. 2026-Apr-25 00:00:00.0000, 3.591277386868809E+08, -6.998650048149356E+07, 3.262940626306849E+07,
2461162.500000000, A.D. 2026-May-02 00:00:00.0000, 3.625626693533577E+08, -5.860384520622376E+07, 3.377133506926724E+07,
2461169.500000000, A.D. 2026-May-09 00:00:00.0000, 3.656468313132727E+08, -4.716450543909656E+07, 3.488058856432023E+07,
2461176.500000000, A.D. 2026-May-16 00:00:00.0000, 3.683815347056864E+08, -3.568010326963593E+07, 3.595650277008679E+07,
2461183.500000000, A.D. 2026-May-23 00:00:00.0000, 3.707684820196486E+08, -2.416203356230973E+07, 3.699846997409473E+07,
2461190.500000000, A.D. 2026-May-30 00:00:00.0000, 3.728097473532845E+08, -1.262145049106217E+07, 3.800593760985591E+07,
2461197.500000000, A.D. 2026-Jun-06 00:00:00.0000, 3.745077539172838E+08, -1.069257594043572E+06, 3.897840704801066E+07,
2461204.500000000, A.D. 2026-Jun-13 00:00:00.0000, 3.758652535465080E+08, 1.048389891795616E+07, 3.991543199259002E+07,
2461211.500000000, A.D. 2026-Jun-20 00:00:00.0000, 3.768853078056291E+08, 2.202763660106473E+07, 4.081661678107861E+07,
2461218.500000000, A.D. 2026-Jun-27 00:00:00.0000, 3.775712690702083E+08, 3.355184270449354E+07, 4.168161472979626E+07,
2461225.500000000, A.D. 2026-Jul-04 00:00:00.0000, 3.779267616532594E+08, 4.504667888806790E+07, 4.251012647391465E+07,
2461232.500000000, A.D. 2026-Jul-11 00:00:00.0000, 3.779556632913093E+08, 5.650258467984888E+07, 4.330189827961735E+07,
2461239.500000000, A.D. 2026-Jul-18 00:00:00.0000, 3.776620871334485E+08, 6.791027978058723E+07, 4.405672033262115E+07,
2461246.500000000, A.D. 2026-Jul-25 00:00:00.0000, 3.770503643001240E+08, 7.926076529835999E+07, 4.477442501080643E+07,
2461253.500000000, A.D. 2026-Aug-01 00:00:00.0000, 3.761250270944852E+08, 9.054532394474187E+07, 4.545488514160514E+07,
2461260.500000000, A.D. 2026-Aug-08 00:00:00.0000, 3.748907931088464E+08, 1.017555192337533E+08, 4.609801222963487E+07,
2461267.500000000, A.D. 2026-Aug-15 00:00:00.0000, 3.733525506605955E+08, 1.128831942076627E+08, 4.670375466001616E+07,
2461274.500000000, A.D. 2026-Aug-22 00:00:00.0000, 3.715153448066282E+08, 1.239204709837170E+08, 4.727209605251780E+07,
2461281.500000000, A.D. 2026-Aug-29 00:00:00.0000, 3.693843616561454E+08, 1.348597498226324E+08, 4.780305387086549E+07,
2461288.500000000, A.D. 2026-Sep-05 00:00:00.0000, 3.669649131240898E+08, 1.456937049174845E+08, 4.829667786334603E+07,
2461295.500000000, A.D. 2026-Sep-12 00:00:00.0000, 3.642624245786590E+08, 1.564152794593126E+08, 4.875304831717660E+07,
$$EOE